{
    "links": {
        "self": "http://www.neowsapp.com/rest/v1/neo/3837633?api_key=iIulBulltgU6a56xZRHN4H3l9WmuAYTsLGpBGhQ2"
    },
    "id": "3837633",
    "neo_reference_id": "3837633",
    "name": "(2019 AN3)",
    "designation": "2019 AN3",
    "nasa_jpl_url": "http://ssd.jpl.nasa.gov/sbdb.cgi?sstr=3837633",
    "absolute_magnitude_h": 20.6,
    "estimated_diameter": {
        "kilometers": {
            "estimated_diameter_min": 0.2016299194,
            "estimated_diameter_max": 0.4508582062
        },
        "meters": {
            "estimated_diameter_min": 201.6299194428,
            "estimated_diameter_max": 450.8582061718
        },
        "miles": {
            "estimated_diameter_min": 0.1252869847,
            "estimated_diameter_max": 0.2801502144
        },
        "feet": {
            "estimated_diameter_min": 661.5155049046,
            "estimated_diameter_max": 1479.1936371367
        }
    },
    "is_potentially_hazardous_asteroid": false,
    "close_approach_data": [
        {
            "close_approach_date": "2018-09-03",
            "close_approach_date_full": "2018-Sep-03 21:58",
            "epoch_date_close_approach": 1536011880000,
            "relative_velocity": {
                "kilometers_per_second": "21.3180777023",
                "kilometers_per_hour": "76745.0797282375",
                "miles_per_hour": "47686.4080122485"
            },
            "miss_distance": {
                "astronomical": "0.1188245633",
                "lunar": "46.2227551237",
                "kilometers": "17775901.573360171",
                "miles": "11045433.0541495198"
            },
            "orbiting_body": "Venus"
        },
        {
            "close_approach_date": "2018-09-25",
            "close_approach_date_full": "2018-Sep-25 23:26",
            "epoch_date_close_approach": 1537917960000,
            "relative_velocity": {
                "kilometers_per_second": "17.9943343583",
                "kilometers_per_hour": "64779.6036897832",
                "miles_per_hour": "40251.5265260211"
            },
            "miss_distance": {
                "astronomical": "0.3309576313",
                "lunar": "128.7425185757",
                "kilometers": "49510556.702725331",
                "miles": "30764433.3693423278"
            },
            "orbiting_body": "Earth"
        }
    ],
    "orbital_data": {
        "orbit_id": "1",
        "orbit_determination_date": "2019-01-06 14:12:04",
        "first_observation_date": "2019-01-03",
        "last_observation_date": "2019-01-06",
        "data_arc_in_days": 3,
        "observations_used": 11,
        "orbit_uncertainty": "9",
        "minimum_orbit_intersection": ".133308",
        "jupiter_tisserand_invariant": "3.070",
        "epoch_osculation": "2458487.5",
        "eccentricity": ".708869672212201",
        "semi_major_axis": "2.435828134753171",
        "inclination": "14.67161177139493",
        "ascending_node_longitude": "316.1182280951481",
        "orbital_period": "1388.571958069339",
        "perihelion_distance": ".7091434433054337",
        "perihelion_argument": "39.73206967400218",
        "aphelion_distance": "4.162512826200908",
        "perihelion_time": "2458384.802385314099",
        "mean_anomaly": "26.62529735825054",
        "mean_motion": ".2592591603970899",
        "equinox": "J2000",
        "orbit_class": {
            "orbit_class_type": "APO",
            "orbit_class_description": "Near-Earth asteroid orbits which cross the Earth’s orbit similar to that of 1862 Apollo",
            "orbit_class_range": "a (semi-major axis) > 1.0 AU; q (perihelion) < 1.017 AU"
        }
    },
    "is_sentry_object": false
}